# From MPC102956
74P/Smirnova-Chernykh,e,6.6544,77.0473,87.3825,4.162084,0.1160748,0.15015906,36.3003,12/07.0/2018,2000,g  5.0,6.0
# From MPC102100
76P/West-Kohoutek-Ikemura,e,30.4572,84.1266,0.0414,3.473876,0.1522238,0.53808251,310.8044,12/07.0/2018,2000,g  8.0,12.0
# From MPC 10028
77P/Longmore,e,24.3407,14.8088,196.8352,3.618355,0.1431981,0.35314979,134.2138,12/07.0/2018,2000,g  7.0,8.0
# From MPC102101
78P/Gehrels,e,6.2488,210.5481,192.6896,3.739808,0.1362794,0.46152246,344.0947,12/07.0/2018,2000,g  5.5,8.0
# From MPC 94675
79P/du Toit-Hartley,e,3.1478,280.5242,281.8476,2.943857,0.1951322,0.61924048,16.5197,12/07.0/2018,2000,g 16.0,4.0
# From MPC 89313
80P/Peters-Hartley,e,29.9473,259.8229,339.2241,4.024166,0.1220929,0.59943859,181.5574,12/07.0/2018,2000,g  9.0,8.0
# From MPC105241
81P/Wild,e,3.2381,136.1208,41.7187,3.448846,0.1538840,0.53781998,133.8760,12/07.0/2018,2000,g  7.0,6.0
# From MPC 75717
82P/Gehrels,e,1.1283,239.3133,227.1567,4.140704,0.1169749,0.12232569,18.9088,12/07.0/2018,2000,g  5.0,8.0
# From MPC105241
84P/Giclas,e,7.5277,108.2617,281.1344,3.561638,0.1466322,0.51602336,280.2241,12/07.0/2018,2000,g  9.5,8.0
# From MPC 79347
86P/Wild,e,15.4773,72.3811,179.2432,3.605336,0.1439745,0.37262185,193.2850,12/07.0/2018,2000,g 11.0,6.0
# From MPC105241
87P/Bus,e,2.6021,181.8732,24.8628,3.439813,0.1544905,0.38943502,279.8086,12/07.0/2018,2000,g  7.2,10.0
# From MPC105241
88P/Howell,e,4.3835,56.6962,235.8693,3.106271,0.1800301,0.56395750,241.2401,12/07.0/2018,2000,g 11.0,6.0
# From MPC 10028
89P/Russell,e,12.0753,41.4412,250.1933,3.753562,0.1355310,0.40848056,97.8603,12/07.0/2018,2000,g 11.5,6.0
# From MPC107051
90P/Gehrels,e,9.6353,13.2381,29.2109,6.062292,0.0660311,0.50942828,35.3940,12/07.0/2018,2000,g  8.5,6.0
# From MPC105241
91P/Russell,e,14.0915,247.8325,354.6608,3.893193,0.1283055,0.33062108,269.8080,12/07.0/2018,2000,g  7.5,6.0
# From MPC 88331
92P/Sanguin,e,19.4541,181.4295,163.7006,5.348473,0.0796818,0.65960056,109.7005,12/07.0/2018,2000,g 12.0,6.0
# From NK 2707
93P/Lovas,e,12.2003,339.6180,74.9273,4.387449,0.1072472,0.61218423,69.2526,12/07.0/2018,2000,g  9.5,6.0
# From MPC 84320
94P/Russell,e,6.1880,70.8634,92.5818,3.507356,0.1500494,0.36477665,115.6867,12/07.0/2018,2000,g  9.0,6.0
# From MPC 75717
95P/Chiron,e,6.9481,209.2083,339.7918,13.66349,0.0195147,0.38097355,162.3485,12/07.0/2018,2000,g  6.3,2.0
# From MPC106348
96P/Machholz,e,58.2391,94.2580,14.7711,3.034129,0.1864889,0.95925619,75.5343,12/07.0/2018,2000,g 13.0,4.8
# From MPC 77020
97P/Metcalf-Brewington,e,17.8454,185.0291,228.2887,4.797292,0.0938015,0.45869088,250.5074,12/07.0/2018,2000,g  5.5,6.0
# From MPC 83523
98P/Takamizawa,e,10.5586,114.7055,157.8525,3.801532,0.1329738,0.56201033,258.9489,12/07.0/2018,2000,g  9.0,8.0
# From MPC 75718
99P/Kowal,e,4.3380,28.1611,174.7143,6.120143,0.0650971,0.23097302,280.5438,12/07.0/2018,2000,g  4.5,6.0
# From MPC 84321
100P/Hartley,e,25.5865,37.7236,181.9746,3.430343,0.1551307,0.41317934,151.8459,12/07.0/2018,2000,g  9.0,8.0
# From MPC105241
101P/Chernykh,e,5.0527,116.1862,277.7270,5.795385,0.0706449,0.59524587,331.5587,12/07.0/2018,2000,g 10.0,4.8
# From MPC 86232
102P/Shoemaker,e,25.8829,339.5170,20.6280,3.809531,0.1325552,0.45796051,256.9091,12/07.0/2018,2000,g  6.5,8.0
# From MPC110085
103P/Hartley,e,13.5929,219.7250,181.3303,3.477560,0.1519820,0.69302777,90.5377,12/07.0/2018,2000,g  8.5,8.0
# From MPC 10028
104P/Kowal,e,10.4072,235.3384,200.2397,3.230705,0.1697298,0.65555511,164.9358,12/07.0/2018,2000,g 16.0,4.0
# From MPC109147
105P/Singer Brewster,e,9.1747,192.4237,46.4601,3.467184,0.1526648,0.41034368,18.1272,12/07.0/2018,2000,g 11.5,6.0
# From MPC 92276
106P/Schuster,e,20.1679,49.6181,353.7752,3.734830,0.1365519,0.60175412,225.7937,12/07.0/2018,2000,g 14.0,4.8
# From MPC 94676
107P/Wilson-Harrington,e,2.7981,266.8154,95.4035,2.626971,0.2314841,0.63081998,45.7118,12/07.0/2018,2000,g 16.0,2.0
# From MPC 89313
108P/Ciffreo,e,12.3990,51.9675,354.3597,3.682355,0.1394812,0.57561123,220.7469,12/07.0/2018,2000,g  8.0,12.0
# From ICA 105, 420
109P/Swift-Tuttle,e,113.6005,139.3471,152.9157,26.08379,0.0073986,0.96357091,70.3163,12/07.0/2018,2000,g  4.5,6.0
# From MPC 91618
110P/Hartley,e,11.7033,287.5276,167.3737,3.603265,0.1440986,0.31676132,209.0921,12/07.0/2018,2000,g  1.0,12.0
# From MPC 75718
111P/Helin-Roman-Crockett,e,4.2276,89.7640,1.5537,4.141190,0.1169543,0.10522655,251.7506,12/07.0/2018,2000,g  5.0,8.0
# From MPC105241
112P/Urata-Niijima,e,24.1922,31.8688,21.4438,3.526591,0.1488235,0.58951188,296.3049,12/07.0/2018,2000,g 14.0,6.0
# From MPC 92984
113P/Spitaler,e,4.1982,349.7172,74.1525,3.589496,0.1449285,0.47430382,183.3494,12/07.0/2018,2000,g 13.5,4.0
# From MPC105241
114P/Wiseman-Skiff,e,18.2728,271.0616,172.8324,3.545676,0.1476235,0.55457903,300.4862,12/07.0/2018,2000,g 11.5,6.0
# From MPC105241
115P/Maury,e,11.6749,176.0394,121.0471,4.271633,0.1116383,0.51843679,292.9044,12/07.0/2018,2000,g 10.5,6.0
# From MPC106348
116P/Wild,e,3.6066,21.0006,173.4038,3.486390,0.1514050,0.37166460,160.5839,12/07.0/2018,2000,g  2.5,10.0
# From MPC 95735
117P/Helin-Roman-Alu,e,8.7015,58.8751,222.5292,4.090432,0.1191380,0.25525993,204.2378,12/07.0/2018,2000,g  2.5,8.0
# From MPC 95735
118P/Shoemaker-Levy,e,8.5056,150.2084,303.6840,3.457841,0.1532839,0.43554488,137.5732,12/07.0/2018,2000,g 12.0,4.0
# From MPC 84628
119P/Parker-Hartley,e,5.8218,240.5651,180.8728,4.094359,0.1189666,0.35423544,196.2820,12/07.0/2018,2000,g  3.5,8.0
# From MPC 80901
120P/Mueller,e,8.5027,0.6246,33.0743,4.007221,0.1228681,0.37448884,252.1769,12/07.0/2018,2000,g 12.0,4.0
# From MPC 10028
121P/Shoemaker-Holt,e,20.1639,94.1419,11.2732,4.590402,0.1002139,0.18362056,193.0009,12/07.0/2018,2000,g  6.5,8.0
# From MPC 75718
122P/de Vico,e,84.5763,79.5024,13.0404,17.64795,0.0132942,0.96241687,112.5787,12/07.0/2018,2000,g  7.5,5.2
# From MPC102101
123P/West-Hartley,e,15.3596,46.4996,103.0059,3.857867,0.1300718,0.44868845,352.1824,12/07.0/2018,2000,g  4.0,10.0
# From MPC105242
124P/Mrkos,e,31.5148,0.3881,183.8321,3.318882,0.1630108,0.50364999,277.3828,12/07.0/2018,2000,g 13.5,2.8
# From MPC 94676
125P/Spacewatch,e,9.9891,153.1746,87.1723,3.124398,0.1784656,0.51346330,18.0361,12/07.0/2018,2000,g 13.0,6.0
# From MPC 66205
126P/IRAS,e,45.7990,357.8230,356.5030,5.642943,0.0735268,0.69540001,237.0100,12/07.0/2018,2000,g  6.0,8.0
# From MPC 84321
127P/Holt-Olmstead,e,14.3013,13.6510,6.6388,3.448615,0.1538994,0.35996529,153.1204,12/07.0/2018,2000,g 11.0,6.0
# From MPC 75719
128P/Shoemaker-Holt,e,4.3649,214.2946,210.5094,4.497131,0.1033477,0.32051173,71.8946,12/07.0/2018,2000,g  8.5,4.0
# From MPC 10028
129P/Shoemaker-Levy,e,3.4441,184.8910,308.6773,4.277854,0.1113949,0.08419635,196.9867,12/07.0/2018,2000,g 11.0,4.0
# From MPC 78188
130P/McNaught-Hughes,e,6.0653,70.2557,245.9259,3.383260,0.1583802,0.46096689,50.5540,12/07.0/2018,2000,g 10.0,6.0
# From MPC102101
131P/Mueller,e,7.3538,214.1921,179.0805,3.681205,0.1395465,0.34328544,353.2687,12/07.0/2018,2000,g 11.0,4.0
# From MPC 92985
132P/Helin-Roman-Alu,e,5.4009,174.6072,216.3296,3.866965,0.1296130,0.56835595,221.1375,12/07.0/2018,2000,g 11.0,6.0
# From MPC 94676
133P/Elst-Pizarro,e,1.3892,160.1357,131.4943,3.162126,0.1752812,0.15727277,13.5378,12/07.0/2018,2000,g 15.4,2.0
# From MPC 89012
134P/Kowal-Vavrova,e,4.3495,202.0829,18.7927,6.251586,0.0630549,0.58781728,104.6623,12/07.0/2018,2000,g 11.5,4.0
# From MPC 92985
135P/Shoemaker-Levy,e,6.0630,213.0749,22.1391,3.805085,0.1327876,0.29576374,198.5041,12/07.0/2018,2000,g  7.0,8.0
# From MPC101100
136P/Mueller,e,9.4191,137.4344,224.9897,4.199068,0.1145446,0.29131809,105.4360,12/07.0/2018,2000,g 11.0,4.0
# From MPC 75719
137P/Shoemaker-Levy,e,4.8538,233.0809,141.0160,4.519034,0.1025973,0.57286838,359.3443,12/07.0/2018,2000,g 11.0,4.0
# From MPC102101
138P/Shoemaker-Levy,e,10.0898,309.3333,95.6172,3.623263,0.1429072,0.53004162,339.0252,12/07.0/2018,2000,g 15.0,6.0
# From MPC108598
139P/Vaisala-Oterma,e,2.3333,242.2079,165.9906,4.528888,0.1022626,0.24617675,36.9785,12/07.0/2018,2000,g  9.5,4.0
# From MPC 92985
140P/Bowell-Skiff,e,3.8224,343.3658,172.9626,6.443861,0.0602539,0.69122922,73.3246,12/07.0/2018,2000,g 11.5,6.0
# From MPC105242
141P/Machholz,e,13.9969,241.8618,153.7320,3.049629,0.1850689,0.73844831,223.3595,12/07.0/2018,2000,g 12.0,12.0
# From MPC 71683
142P/Ge-Wang,e,12.2643,176.2731,174.2374,4.982074,0.0886316,0.49831496,281.1921,12/07.0/2018,2000,g  8.5,6.0
# From MPC 94676
143P/Kowal-Mrkos,e,4.6975,245.2997,320.7879,4.297863,0.1106178,0.41096795,23.6681,12/07.0/2018,2000,g 13.5,2.0
# From MPC104795
144P/Kushida,e,4.1689,245.4319,215.6633,3.840851,0.1309371,0.63412368,108.1146,12/07.0/2018,2000,g  8.5,8.0
# From MPC108598
145P/Shoemaker-Levy,e,11.2600,26.8043,10.3348,4.143760,0.1168455,0.54059862,54.0042,12/07.0/2018,2000,g 13.5,4.0
# From MPC 10028
146P/Shoemaker-LINEAR,e,23.0737,53.4522,316.9260,4.035899,0.1215608,0.64586068,108.1975,12/07.0/2018,2000,g 15.0,4.0
# From MPC 75720
147P/Kushida-Muramatsu,e,2.3762,93.4203,349.5444,3.841276,0.1309154,0.27376427,131.8346,12/07.0/2018,2000,g 14.0,4.0
# From MPC 89730
148P/Anderson-LINEAR,e,3.6874,89.7132,6.4694,3.665098,0.1404674,0.54132066,178.6821,12/07.0/2018,2000,g 16.0,2.0
# From MPC 75720
149P/Mueller,e,29.7710,145.2341,43.7892,4.316173,0.1099147,0.38984014,352.0898,12/07.0/2018,2000,g  8.0,8.0
# From MPC 75720
150P/LONEOS,e,18.5092,272.4110,245.6290,3.880830,0.1289191,0.54659778,111.5682,12/07.0/2018,2000,g 13.5,4.0
# From MPC 95214
151P/Helin,e,4.7224,143.1420,216.1230,5.768949,0.0711310,0.57203762,82.2345,12/07.0/2018,2000,g 10.0,6.0
# From MPC 79346
152P/Helin-Lawrence,e,9.8792,91.8688,163.6413,4.485515,0.1037494,0.30903318,242.5177,12/07.0/2018,2000,g 11.5,4.0
# From MPC 46101
153P/Ikeya-Zhang,e,27.7341,93.0716,35.1432,51.18893,0.0026912,0.98983098,0.0000,03/17.7832/2002,2000,g  7.0,4.0
# From MPC 87068
154P/Brewington,e,17.6227,342.9828,47.9256,4.804414,0.0935930,0.67471763,171.0068,12/07.0/2018,2000,g  2.5,12.0
# From MPC 75720
